{
  "norad_id": 63672,
  "name": "STARLINK-11644 [DTC]",
  "history": [
    {
      "epoch": "2026-04-14T05:53:36.587040Z",
      "apogee_km": 357.7844928789482,
      "perigee_km": 355.12567592402684,
      "latitude_deg": 3.941179110630745e-05,
      "longitude_deg": 133.28664544268827,
      "height_km": 356.25204769851496,
      "semi_major_axis_km": 6734.592084401487,
      "eccentricity": 0.0001974,
      "inclination_deg": 42.9996,
      "raan_deg": 64.1138,
      "arg_perigee_deg": 268.9606,
      "mean_anomaly_deg": 91.1036,
      "mean_motion_rev_day": 15.70853987
    },
    {
      "epoch": "2026-04-15T13:56:22.338240Z",
      "apogee_km": 356.79905185268944,
      "perigee_km": 356.02457873893036,
      "latitude_deg": -6.629767904157491e-06,
      "longitude_deg": 3.2329844668872805,
      "height_km": 356.04426237929357,
      "semi_major_axis_km": 6734.54881529581,
      "eccentricity": 5.75e-05,
      "inclination_deg": 43.0004,
      "raan_deg": 56.0669,
      "arg_perigee_deg": 291.0828,
      "mean_anomaly_deg": 68.9978,
      "mean_motion_rev_day": 15.70869126
    },
    {
      "epoch": "2026-04-16T17:24:26.942112Z",
      "apogee_km": 357.33123803604485,
      "perigee_km": 355.27050004811827,
      "latitude_deg": 3.5402182357417806e-05,
      "longitude_deg": -56.813619738414175,
      "height_km": 355.442947480137,
      "semi_major_axis_km": 6734.437869042081,
      "eccentricity": 0.000153,
      "inclination_deg": 42.9985,
      "raan_deg": 49.1675,
      "arg_perigee_deg": 52.4722,
      "mean_anomaly_deg": 307.6285,
      "mean_motion_rev_day": 15.70907945
    },
    {
      "epoch": "2026-04-17T22:24:04.303296Z",
      "apogee_km": 357.90880343273784,
      "perigee_km": 354.7301399780936,
      "latitude_deg": 2.225430373092092e-05,
      "longitude_deg": -140.19303317964403,
      "height_km": 355.99541506952755,
      "semi_major_axis_km": 6734.456471705415,
      "eccentricity": 0.000236,
      "inclination_deg": 43.0007,
      "raan_deg": 41.8845,
      "arg_perigee_deg": 273.5107,
      "mean_anomaly_deg": 86.5491,
      "mean_motion_rev_day": 15.70901436
    },
    {
      "epoch": "2026-04-18T12:08:07.365984Z",
      "apogee_km": 356.99597064644786,
      "perigee_km": 355.5297571080846,
      "latitude_deg": -4.218384005898818e-05,
      "longitude_deg": 9.780894083537856,
      "height_km": 355.37319965851,
      "semi_major_axis_km": 6734.3998638772655,
      "eccentricity": 0.00010886,
      "inclination_deg": 43.0005,
      "raan_deg": 38.4353,
      "arg_perigee_deg": 25.7209,
      "mean_anomaly_deg": 334.3712,
      "mean_motion_rev_day": 15.70921243
    },
    {
      "epoch": "2026-04-19T04:55:15.106080Z",
      "apogee_km": 357.40152511639644,
      "perigee_km": 355.44203789333005,
      "latitude_deg": 1.4972278207329005e-05,
      "longitude_deg": 113.09484906181339,
      "height_km": 356.4283073318926,
      "semi_major_axis_km": 6734.558781504863,
      "eccentricity": 0.00014548,
      "inclination_deg": 43.0013,
      "raan_deg": 34.2208,
      "arg_perigee_deg": 256.1845,
      "mean_anomaly_deg": 103.8861,
      "mean_motion_rev_day": 15.70865639
    },
    {
      "epoch": "2026-04-20T11:26:28.727232Z",
      "apogee_km": 357.24678133401994,
      "perigee_km": 354.44746413419944,
      "latitude_deg": 7.115672040539848e-06,
      "longitude_deg": 6.369753474352709,
      "height_km": 354.90422202923133,
      "semi_major_axis_km": 6733.984122734109,
      "eccentricity": 0.00020785,
      "inclination_deg": 43.0017,
      "raan_deg": 26.5559,
      "arg_perigee_deg": 300.7642,
      "mean_anomaly_deg": 59.3021,
      "mean_motion_rev_day": 15.71066723
    },
    {
      "epoch": "2026-04-21T02:42:03.568320Z",
      "apogee_km": 357.3909277633229,
      "perigee_km": 355.20317951665675,
      "latitude_deg": 2.6068002014669483e-05,
      "longitude_deg": 133.01420832239089,
      "height_km": 356.1101364913452,
      "semi_major_axis_km": 6734.4340536399895,
      "eccentricity": 0.00016243,
      "inclination_deg": 43.0001,
      "raan_deg": 22.7222,
      "arg_perigee_deg": 267.8804,
      "mean_anomaly_deg": 92.1878,
      "mean_motion_rev_day": 15.7090928
    },
    {
      "epoch": "2026-04-22T18:22:37.139232Z",
      "apogee_km": 357.52038776048266,
      "perigee_km": 355.67776397012676,
      "latitude_deg": -1.0189600610752175e-05,
      "longitude_deg": -113.71994841355286,
      "height_km": 356.4302786232638,
      "semi_major_axis_km": 6734.736075865305,
      "eccentricity": 0.0001368,
      "inclination_deg": 43.0002,
      "raan_deg": 12.7574,
      "arg_perigee_deg": 266.3429,
      "mean_anomaly_deg": 93.7282,
      "mean_motion_rev_day": 15.70803609
    },
    {
      "epoch": "2026-04-23T00:28:51.693600Z",
      "apogee_km": 357.45060835285767,
      "perigee_km": 355.25381797152477,
      "latitude_deg": 3.9754259554348384e-05,
      "longitude_deg": 152.9362769039698,
      "height_km": 355.6329160802136,
      "semi_major_axis_km": 6734.489213162191,
      "eccentricity": 0.0001631,
      "inclination_deg": 43.001,
      "raan_deg": 11.2249,
      "arg_perigee_deg": 296.6089,
      "mean_anomaly_deg": 63.4612,
      "mean_motion_rev_day": 15.7088998
    },
    {
      "epoch": "2026-04-24T17:40:57.956160Z",
      "apogee_km": 358.53655433948916,
      "perigee_km": 353.96794467262407,
      "latitude_deg": 1.586017130634076e-06,
      "longitude_deg": -117.13045551991728,
      "height_km": 355.3944002975628,
      "semi_major_axis_km": 6734.389249506056,
      "eccentricity": 0.0003392,
      "inclination_deg": 43.0003,
      "raan_deg": 0.8764,
      "arg_perigee_deg": 286.0545,
      "mean_anomaly_deg": 73.9949,
      "mean_motion_rev_day": 15.70924957
    },
    {
      "epoch": "2026-04-25T16:34:21.410112Z",
      "apogee_km": 356.9657475271206,
      "perigee_km": 355.39665138664714,
      "latitude_deg": -1.0606901135897367e-05,
      "longitude_deg": -107.16624626617529,
      "height_km": 356.3461042191844,
      "semi_major_axis_km": 6734.318199456883,
      "eccentricity": 0.0001165,
      "inclination_deg": 43.0,
      "raan_deg": 355.1284,
      "arg_perigee_deg": 239.9505,
      "mean_anomaly_deg": 120.1247,
      "mean_motion_rev_day": 15.70949818
    },
    {
      "epoch": "2026-04-26T15:27:45.413568Z",
      "apogee_km": 357.7346472722302,
      "perigee_km": 354.5136501647976,
      "latitude_deg": 1.5696801183886433e-05,
      "longitude_deg": -97.20409121366022,
      "height_km": 356.3302022659527,
      "semi_major_axis_km": 6734.261148718513,
      "eccentricity": 0.00023915,
      "inclination_deg": 43.0007,
      "raan_deg": 349.3806,
      "arg_perigee_deg": 254.4069,
      "mean_anomaly_deg": 105.6535,
      "mean_motion_rev_day": 15.70969781
    },
    {
      "epoch": "2026-04-27T08:14:56.404896Z",
      "apogee_km": 357.3889756521621,
      "perigee_km": 355.29455275649525,
      "latitude_deg": 8.487063675338434e-07,
      "longitude_deg": 6.093903837314089,
      "height_km": 355.4831116737279,
      "semi_major_axis_km": 6734.478764204328,
      "eccentricity": 0.0001555,
      "inclination_deg": 43.0001,
      "raan_deg": 345.1638,
      "arg_perigee_deg": 53.1163,
      "mean_anomaly_deg": 306.9847,
      "mean_motion_rev_day": 15.70893636
    },
    {
      "epoch": "2026-04-28T14:46:07.074624Z",
      "apogee_km": 356.47850163532075,
      "perigee_km": 355.8791475269327,
      "latitude_deg": 2.1940064999010677e-05,
      "longitude_deg": -100.6202265781005,
      "height_km": 355.9273055201146,
      "semi_major_axis_km": 6734.315824581126,
      "eccentricity": 4.45e-05,
      "inclination_deg": 42.9942,
      "raan_deg": 337.4975,
      "arg_perigee_deg": 274.2945,
      "mean_anomaly_deg": 85.7872,
      "mean_motion_rev_day": 15.70950649
    },
    {
      "epoch": "2026-04-29T21:17:18.731040Z",
      "apogee_km": 356.9810815903893,
      "perigee_km": 355.1210988398707,
      "latitude_deg": -1.7314063792562393e-07,
      "longitude_deg": 152.66017399313193,
      "height_km": 356.26193558143905,
      "semi_major_axis_km": 6734.18809021513,
      "eccentricity": 0.0001381,
      "inclination_deg": 42.9976,
      "raan_deg": 329.8299,
      "arg_perigee_deg": 118.3342,
      "mean_anomaly_deg": 241.7665,
      "mean_motion_rev_day": 15.70995346
    },
    {
      "epoch": "2026-04-30T14:04:27.774912Z",
      "apogee_km": 357.83538032358956,
      "perigee_km": 354.73794950315005,
      "latitude_deg": -3.516673351043914e-05,
      "longitude_deg": -104.03101655065012,
      "height_km": 355.96645386451195,
      "semi_major_axis_km": 6734.42366491337,
      "eccentricity": 0.00022997,
      "inclination_deg": 42.9978,
      "raan_deg": 325.6158,
      "arg_perigee_deg": 273.4467,
      "mean_anomaly_deg": 86.6137,
      "mean_motion_rev_day": 15.70912915
    },
    {
      "epoch": "2026-05-01T22:07:13.035360Z",
      "apogee_km": 357.7262468666686,
      "perigee_km": 355.20615834825367,
      "latitude_deg": 4.315076957314765e-08,
      "longitude_deg": 125.9165557853796,
      "height_km": 356.55254914723326,
      "semi_major_axis_km": 6734.603202607461,
      "eccentricity": 0.0001871,
      "inclination_deg": 42.9999,
      "raan_deg": 317.568,
      "arg_perigee_deg": 255.5875,
      "mean_anomaly_deg": 104.4785,
      "mean_motion_rev_day": 15.70850097
    },
    {
      "epoch": "2026-05-03T12:16:12.811296Z",
      "apogee_km": 356.3991827199043,
      "perigee_km": 355.8038760339059,
      "latitude_deg": 8.70199333021079e-06,
      "longitude_deg": -97.48086752622896,
      "height_km": 356.00042119892623,
      "semi_major_axis_km": 6734.238529376905,
      "eccentricity": 4.42e-05,
      "inclination_deg": 42.9977,
      "raan_deg": 307.9864,
      "arg_perigee_deg": 244.6075,
      "mean_anomaly_deg": 115.4747,
      "mean_motion_rev_day": 15.70977696
    }
  ]
}